NORAD_CAT_ID,OBJECT_NAME,OBJECT_TYPE,EPOCH,MEAN_MOTION,ECCENTRICITY,INCLINATION,RA_OF_ASC_NODE,ARG_OF_PERICENTER,MEAN_ANOMALY,BSTAR,MEAN_MOTION_DOT,MEAN_MOTION_DDOT,TLE_LINE0,TLE_LINE1,TLE_LINE2,SEMIMAJOR_AXIS,PERIOD,APOGEE,PERIGEE,DECAYED
55291.0,STARLINK-5327,PAYLOAD,2024-04-29 12:37:43,14.98320762,0.0003011,69.9981,297.0021,262.5564,97.5253,0.00019427,2.225e-05,0.0,0 STARLINK-5327,1 55291U 23010Y   24120.52619624  .00002225  00000-0  19427-3 0  9999,2 55291  69.9981 297.0021 0003011 262.5564  97.5253 14.98320762 71227,6950.221,96.108,574.179,569.994,0.0
55291.0,STARLINK-5327,PAYLOAD,2024-04-29 14:13:51,14.98321222,0.000301,69.9981,296.8338,262.5526,97.5291,0.00019561,2.241e-05,0.0,0 STARLINK-5327,1 55291U 23010Y   24120.59295634  .00002241  00000-0  19561-3 0  9994,2 55291  69.9981 296.8338 0003010 262.5526  97.5291 14.98321222 71541,6950.22,96.108,574.177,569.993,0.0
55291.0,STARLINK-5327,PAYLOAD,2024-04-29 22:14:31,14.98326113,0.0003018,69.9982,295.9922,262.355,97.7266,0.00020168,2.314e-05,0.0,0 STARLINK-5327,1 55291U 23010Y   24120.92675475  .00002314  00000-0  20168-3 0  9992,2 55291  69.9982 295.9922 0003018 262.3550  97.7266 14.98326113 71597,6950.205,96.107,574.167,569.972,0.0
55291.0,STARLINK-5327,PAYLOAD,2024-04-30 12:39:44,14.98330853,0.0002902,69.9986,294.477,262.3269,97.7561,2.813e-05,2.43e-06,0.0,0 STARLINK-5327,1 55291U 23010Y   24121.52759798  .00000243  00000-0  28130-4 0  9997,2 55291  69.9986 294.4770 0002902 262.3269  97.7561 14.98330853 71374,6950.19,96.107,574.072,570.038,0.0
55291.0,STARLINK-5327,PAYLOAD,2024-04-30 14:15:52,14.98329441,0.0002958,69.9985,294.3088,263.2999,96.7824,4.2768e-05,4.17e-06,0.0,0 STARLINK-5327,1 55291U 23010Y   24121.59435831  .00000417  00000-0  42768-4 0  9999,2 55291  69.9985 294.3088 0002958 263.2999  96.7824 14.98329441 71692,6950.195,96.107,574.115,570.004,0.0
55291.0,STARLINK-5327,PAYLOAD,2024-04-30 22:16:32,14.98329483,0.000289,69.9988,293.4669,261.4252,98.658,6.5536e-05,6.89e-06,0.0,0 STARLINK-5327,1 55291U 23010Y   24121.92815780  .00000689  00000-0  65536-4 0  9990,2 55291  69.9988 293.4669 0002890 261.4252  98.6580 14.98329483 71749,6950.194,96.107,574.068,570.051,0.0
55291.0,STARLINK-5327,PAYLOAD,2024-05-01 11:05:37,14.98335159,0.0002922,69.9988,292.1204,265.948,94.1345,-3.7073e-06,-1.37e-06,0.0,0 STARLINK-5327,1 55291U 23010Y   24122.46223552 -.00000137  00000-0 -37073-5 0  9996,2 55291  69.9988 292.1204 0002922 265.9480  94.1345 14.98335159 71824,6950.177,96.107,574.073,570.011,0.0
55291.0,STARLINK-5327,PAYLOAD,2024-05-01 17:30:09,14.98335361,0.0002989,69.9988,291.447,266.1787,93.9031,1.9832e-05,1.44e-06,0.0,0 STARLINK-5327,1 55291U 23010Y   24122.72927373  .00000144  00000-0  19832-4 0  9995,2 55291  69.9988 291.4470 0002989 266.1787  93.9031 14.98335361 71551,6950.176,96.107,574.119,569.964,0.0
55291.0,STARLINK-5327,PAYLOAD,2024-05-02 12:43:46,14.98326603,0.000303,69.999,289.427,265.3137,94.7676,-1.4862e-06,-1.11e-06,0.0,0 STARLINK-5327,1 55291U 23010Y   24123.53039856 -.00000111  00000-0 -14862-5 0  9990,2 55291  69.9990 289.4270 0003030 265.3137  94.7676 14.98326603 71673,6950.203,96.107,574.174,569.962,0.0
55291.0,STARLINK-5327,PAYLOAD,2024-05-02 14:19:54,14.98326225,0.0003028,69.9987,289.2587,265.5866,94.4947,-1.1597e-05,-2.31e-06,0.0,0 STARLINK-5327,1 55291U 23010Y   24123.59715919 -.00000231  00000-0 -11597-4 0  9991,2 55291  69.9987 289.2587 0003028 265.5866  94.4947 14.98326225 71999,6950.205,96.107,574.174,569.965,0.0
55291.0,STARLINK-5327,PAYLOAD,2024-05-03 12:45:46,14.98336975,0.0003084,69.9978,286.901,269.3011,90.7795,6.705e-05,7.07e-06,0.0,0 STARLINK-5327,1 55291U 23010Y   24124.53178936  .00000707  00000-0  67050-4 0  9999,2 55291  69.9978 286.9010 0003084 269.3011  90.7795 14.98336975 71825,6950.171,96.107,574.18,569.893,0.0
55291.0,STARLINK-5327,PAYLOAD,2024-05-03 14:21:54,14.98337269,0.0003084,69.9979,286.7327,269.2997,90.7809,6.9446e-05,7.36e-06,0.0,0 STARLINK-5327,1 55291U 23010Y   24124.59854885  .00000736  00000-0  69446-4 0  9992,2 55291  69.9979 286.7327 0003084 269.2997  90.7809 14.98337269 72146,6950.17,96.107,574.179,569.892,0.0
55291.0,STARLINK-5327,PAYLOAD,2024-05-03 20:46:26,14.98341001,0.0003134,69.9981,286.0598,270.2037,89.8763,7.0893e-05,7.53e-06,0.0,0 STARLINK-5327,1 55291U 23010Y   24124.86558509  .00000753  00000-0  70893-4 0  9993,2 55291  69.9981 286.0598 0003134 270.2037  89.8763 14.98341001 72186,6950.159,96.106,574.202,569.846,0.0
55291.0,STARLINK-5327,PAYLOAD,2024-05-04 12:47:48,14.98321333,0.0003056,69.9984,284.3764,270.3436,89.7373,-1.2033e-05,-2.37e-06,0.0,0 STARLINK-5327,1 55291U 23010Y   24125.53320014 -.00000237  00000-0 -12033-4 0  9997,2 55291  69.9984 284.3764 0003056 270.3436  89.7373 14.98321333 71970,6950.22,96.108,574.209,569.961,0.0
55291.0,STARLINK-5327,PAYLOAD,2024-05-05 03:13:00,14.98329156,0.0003122,69.9982,282.8613,270.5834,89.4968,1.9599e-05,1.41e-06,0.0,0 STARLINK-5327,1 55291U 23010Y   24126.13403574  .00000141  00000-0  19599-4 0  9993,2 55291  69.9982 282.8613 0003122 270.5834  89.4968 14.98329156 72061,6950.196,96.107,574.23,569.891,0.0
55291.0,STARLINK-5327,PAYLOAD,2024-05-05 14:25:56,14.98336866,0.0002995,69.9988,281.683,271.3185,88.7631,-4.3694e-06,-1.45e-06,0.0,0 STARLINK-5327,1 55291U 23010Y   24126.60135133 -.00000145  00000-0 -43694-5 0  9998,2 55291  69.9988 281.6830 0002995 271.3185  88.7631 14.98336866 72447,6950.172,96.107,574.118,569.955,0.0
55291.0,STARLINK-5327,PAYLOAD,2024-05-05 19:14:20,14.98338387,0.0002949,69.9989,281.1784,270.2139,89.8683,1.565e-05,9.4e-07,0.0,0 STARLINK-5327,1 55291U 23010Y   24126.80162900  .00000094  00000-0  15650-4 0  9993,2 55291  69.9989 281.1784 0002949 270.2139  89.8683 14.98338387 72165,6950.167,96.106,574.082,569.982,0.0
55291.0,STARLINK-5327,PAYLOAD,2024-05-06 12:51:48,14.98344379,0.0003176,69.9985,279.3258,272.2137,87.8658,0.00024614,2.846e-05,0.0,0 STARLINK-5327,1 55291U 23010Y   24127.53597613  .00002846  00000-0  24614-3 0  9993,2 55291  69.9985 279.3258 0003176 272.2137  87.8658 14.98344379 72279,6950.148,96.106,574.221,569.806,0.0
55291.0,STARLINK-5327,PAYLOAD,2024-05-06 14:27:56,14.98345202,0.0003169,69.9985,279.1574,272.3145,87.7651,0.00025267,2.924e-05,0.0,0 STARLINK-5327,1 55291U 23010Y   24127.60273502  .00002924  00000-0  25267-3 0  9991,2 55291  69.9985 279.1574 0003169 272.3145  87.7651 14.98345202 72593,6950.146,96.106,574.213,569.808,0.0
55291.0,STARLINK-5327,PAYLOAD,2024-05-06 19:16:19,14.98354851,0.000307,69.9987,278.6528,271.2086,88.8721,0.0003501,4.089e-05,0.0,0 STARLINK-5327,1 55291U 23010Y   24127.80300414  .00004089  00000-0  35010-3 0  9997,2 55291  69.9987 278.6528 0003070 271.2086  88.8721 14.98354851 72311,6950.116,96.105,574.115,569.847,0.0
55291.0,STARLINK-5327,PAYLOAD,2024-05-07 12:53:51,14.98315119,0.0003405,69.9989,276.8012,270.2694,89.8075,-0.00018922,-2.349e-05,0.0,0 STARLINK-5327,1 55291U 23010Y   24128.53739991 -.00002349  00000-0 -18922-3 0  9996,2 55291  69.9989 276.8012 0003405 270.2694  89.8075 14.98315119 72426,6950.239,96.108,574.47,569.737,0.0
55291.0,STARLINK-5327,PAYLOAD,2024-05-07 14:29:59,14.98316191,0.0003331,69.9988,276.6328,269.2138,90.8639,-0.00017324,-2.159e-05,0.0,0 STARLINK-5327,1 55291U 23010Y   24128.60415940 -.00002159  00000-0 -17324-3 0  9993,2 55291  69.9988 276.6328 0003331 269.2138  90.8639 14.98316191 72746,6950.236,96.108,574.416,569.785,0.0
55291.0,STARLINK-5327,PAYLOAD,2024-05-07 19:18:23,14.98323642,0.0003176,69.999,276.128,267.4932,92.5864,-0.000135,-1.703e-05,0.0,0 STARLINK-5327,1 55291U 23010Y   24128.80443441 -.00001703  00000-0 -13500-3 0  9998,2 55291  69.9990 276.1280 0003176 267.4932  92.5864 14.98323642 72467,6950.213,96.107,574.285,569.87,0.0
55291.0,STARLINK-5327,PAYLOAD,2024-05-08 14:31:59,14.9832963,0.0003047,69.9992,274.1089,266.8791,93.2019,-0.0002196,-2.712e-05,0.0,0 STARLINK-5327,1 55291U 23010Y   24129.60555535 -.00002712  00000-0 -21960-3 0  9995,2 55291  69.9992 274.1089 0003047 266.8791  93.2019 14.98329630 72897,6950.194,96.107,574.177,569.941,0.0
55291.0,STARLINK-5327,PAYLOAD,2024-05-08 19:20:23,14.98338153,0.0003135,69.9991,273.6036,267.7127,92.3673,-0.00017817,-2.219e-05,0.0,0 STARLINK-5327,1 55291U 23010Y   24129.80582879 -.00002219  00000-0 -17817-3 0  9996,2 55291  69.9991 273.6036 0003135 267.7127  92.3673 14.98338153 72619,6950.168,96.106,574.212,569.854,0.0
55291.0,STARLINK-5327,PAYLOAD,2024-05-09 14:34:00,14.98327743,0.0003157,69.9991,271.583,264.7291,95.3508,0.00029464,3.424e-05,0.0,0 STARLINK-5327,1 55291U 23010Y   24130.60694755  .00003424  00000-0  29464-3 0  9991,2 55291  69.9991 271.5830 0003157 264.7291  95.3508 14.98327743 73042,6950.2,96.107,574.259,569.871,0.0
55291.0,STARLINK-5327,PAYLOAD,2024-05-09 19:22:24,14.98336781,0.0003157,69.9991,271.0785,265.2337,94.8461,0.00041959,4.918e-05,0.0,0 STARLINK-5327,1 55291U 23010Y   24130.80722336  .00004918  00000-0  41959-3 0  9992,2 55291  69.9991 271.0785 0003157 265.2337  94.8461 14.98336781 72765,6950.172,96.107,574.231,569.843,0.0
55291.0,STARLINK-5327,PAYLOAD,2024-05-10 12:59:54,14.98324005,0.0002807,70.0003,269.2282,262.8236,97.2604,0.0001586,1.8e-05,0.0,0 STARLINK-5327,1 55291U 23010Y   24131.54159954  .00001800  00000-0  15860-3 0  9993,2 55291  70.0003 269.2282 0002807 262.8236  97.2604 14.98324005 72879,6950.211,96.107,574.027,570.126,0.0
55291.0,STARLINK-5327,PAYLOAD,2024-05-10 14:36:02,14.98324082,0.0002784,70.0011,269.0607,258.3916,101.693,0.00018249,2.085e-05,0.0,0 STARLINK-5327,1 55291U 23010Y   24131.60835928  .00002085  00000-0  18249-3 0  9992,2 55291  70.0011 269.0607 0002784 258.3916 101.6930 14.98324082 73199,6950.211,96.107,574.011,570.141,0.0
55291.0,STARLINK-5327,PAYLOAD,2024-05-10 17:48:18,14.98325823,0.0002672,70.0011,268.7249,258.198,101.888,0.00014585,1.648e-05,0.0,0 STARLINK-5327,1 55291U 23010Y   24131.74187906  .00001648  00000-0  14585-3 0  9996,2 55291  70.0011 268.7249 0002672 258.1980 101.8880 14.98325823 73215,6950.206,96.107,573.928,570.214,0.0
